DAMPE                   
1 41173U 15078A   26068.99653388  .00002617  00000+0  91158-4 0  9993
2 41173  97.4588  73.9866 0013800  70.6942 289.5790 15.30502084569376
HORS 2                  
1 57196U 23091AG  26068.92470846  .00016821  00000+0  59338-3 0  9993
2 57196  97.5195 134.7443 0009817  79.3164 280.9181 15.29280080149342
